{
    "links": {
        "self": "http://www.neowsapp.com/rest/v1/neo/3330156?api_key=iIulBulltgU6a56xZRHN4H3l9WmuAYTsLGpBGhQ2"
    },
    "id": "3330156",
    "neo_reference_id": "3330156",
    "name": "(2006 HW5)",
    "designation": "2006 HW5",
    "nasa_jpl_url": "http://ssd.jpl.nasa.gov/sbdb.cgi?sstr=3330156",
    "absolute_magnitude_h": 24.3,
    "estimated_diameter": {
        "kilometers": {
            "estimated_diameter_min": 0.0366906138,
            "estimated_diameter_max": 0.0820427065
        },
        "meters": {
            "estimated_diameter_min": 36.6906137531,
            "estimated_diameter_max": 82.0427064882
        },
        "miles": {
            "estimated_diameter_min": 0.0227984834,
            "estimated_diameter_max": 0.0509789586
        },
        "feet": {
            "estimated_diameter_min": 120.3760332259,
            "estimated_diameter_max": 269.1689931548
        }
    },
    "is_potentially_hazardous_asteroid": false,
    "close_approach_data": [
        {
            "close_approach_date": "2006-04-28",
            "close_approach_date_full": "2006-Apr-28 02:53",
            "epoch_date_close_approach": 1146192780000,
            "relative_velocity": {
                "kilometers_per_second": "8.3239721946",
                "kilometers_per_hour": "29966.2999006744",
                "miles_per_hour": "18619.8934021719"
            },
            "miss_distance": {
                "astronomical": "0.0461359887",
                "lunar": "17.9468996043",
                "kilometers": "6901845.639864069",
                "miles": "4288608.0152153922"
            },
            "orbiting_body": "Earth"
        },
        {
            "close_approach_date": "2189-12-22",
            "close_approach_date_full": "2189-Dec-22 18:00",
            "epoch_date_close_approach": 6941786400000,
            "relative_velocity": {
                "kilometers_per_second": "6.2859300594",
                "kilometers_per_hour": "22629.3482139101",
                "miles_per_hour": "14060.9969499154"
            },
            "miss_distance": {
                "astronomical": "1.9513963981",
                "lunar": "759.0931988609",
                "kilometers": "291924744.681432047",
                "miles": "181393625.0108823686"
            },
            "orbiting_body": "Juptr"
        }
    ],
    "orbital_data": {
        "orbit_id": "9",
        "orbit_determination_date": "2017-04-06 09:08:47",
        "first_observation_date": "2006-04-20",
        "last_observation_date": "2006-05-03",
        "data_arc_in_days": 13,
        "observations_used": 26,
        "orbit_uncertainty": "8",
        "minimum_orbit_intersection": ".0272965",
        "jupiter_tisserand_invariant": "3.280",
        "epoch_osculation": "2453848.5",
        "eccentricity": ".5702130674192444",
        "semi_major_axis": "2.39726140591156",
        "inclination": "6.035585847777212",
        "ascending_node_longitude": "26.78000245013248",
        "orbital_period": "1355.724727364056",
        "perihelion_distance": "1.030311626240959",
        "perihelion_argument": "176.4707230820994",
        "aphelion_distance": "3.76421118558216",
        "perihelion_time": "2453842.627955204774",
        "mean_anomaly": "1.559266482061959",
        "mean_motion": ".2655406313197151",
        "equinox": "J2000",
        "orbit_class": {
            "orbit_class_type": "AMO",
            "orbit_class_description": "Near-Earth asteroid orbits similar to that of 1221 Amor",
            "orbit_class_range": "1.017 AU < q (perihelion) < 1.3 AU"
        }
    },
    "is_sentry_object": false
}